GLOBALSTAR M035         
1 25851U 99037A   25034.90895527 -.00000083  00000+0 -71265-3 0  9994
2 25851  51.9990 352.1889 0013763 124.6565 300.7949 11.04536024 81536
GLOBALSTAR M032         
1 25852U 99037B   25034.70391792 -.00000062  00000+0  14101-3 0  9990
2 25852  51.9921 187.0505 0010057 305.9579  54.0287 11.19056057119842
GLOBALSTAR M051         
1 25853U 99037C   25035.12293586 -.00000045  00000+0  66126-3 0  9995
2 25853  51.9827   1.8934 0000979 342.8062  17.2715 11.42201286117203
GLOBALSTAR M030         
1 25854U 99037D   25034.56083595 -.00000060  00000+0  32619-3 0  9997
2 25854  51.9852 177.8499 0004350 157.0677 203.0335 11.55104113134709
GLOBALSTAR M048         
1 25872U 99041A   25034.92205558 -.00000049  00000+0  56095-3 0  9998
2 25872  51.9379 292.2639 0012979 318.0414 150.4372 11.33854165109865
GLOBALSTAR M026         
1 25873U 99041B   25034.49794294  .00000036  00000+0  36803-2 0  9990
2 25873  52.0007 112.4708 0001577  61.0210  35.4130 11.06827043133683
GLOBALSTAR M043         
1 25874U 99041C   25034.28163700 -.00000091  00000+0 -67855-3 0  9995
2 25874  51.9422  36.0871 0013349  85.4873  13.5106 11.25690339107790
GLOBALSTAR M028         
1 25875U 99041D   25034.91925826 -.00000078  00000+0  14670-3 0  9992
2 25875  51.9596 230.4457 0063903 141.2227 219.3245 12.50576502173504
